NORAD_CAT_ID,OBJECT_NAME,OBJECT_TYPE,EPOCH,MEAN_MOTION,ECCENTRICITY,INCLINATION,RA_OF_ASC_NODE,ARG_OF_PERICENTER,MEAN_ANOMALY,BSTAR,MEAN_MOTION_DOT,MEAN_MOTION_DDOT,TLE_LINE0,TLE_LINE1,TLE_LINE2,SEMIMAJOR_AXIS,PERIOD,APOGEE,PERIGEE,DECAYED
52352.0,STARLINK-3838,PAYLOAD,2022-06-03 13:54:34,15.73229196,0.0002662,53.2141,264.5635,27.5661,332.5499,2.9431e-05,3.515e-05,0.0,0 STARLINK-3838,1 52352U 22045X   22154.57957106  .00003515  00000-0  29431-4 0  9991,2 52352  53.2141 264.5635 0002662  27.5661 332.5499 15.73229196  8018,6727.812,91.531,351.468,347.886,0.0
52352.0,STARLINK-3838,PAYLOAD,2022-06-03 18:29:01,15.73206424,0.0002276,53.2136,263.6191,21.1983,338.9131,-9.9965e-06,-2.025e-05,0.0,0 STARLINK-3838,1 52352U 22045X   22154.77016140 -.00002025  00000-0 -99965-5 0  9994,2 52352  53.2136 263.6191 0002276  21.1983 338.9131 15.73206424  8042,6727.877,91.533,351.273,348.211,0.0
52352.0,STARLINK-3838,PAYLOAD,2022-06-04 11:15:18,15.7321575,0.0002323,53.2134,260.1611,11.0376,349.0695,1.1663e-05,1.016e-05,0.0,0 STARLINK-3838,1 52352U 22045X   22155.46896498  .00001016  00000-0  11663-4 0  9998,2 52352  53.2134 260.1611 0002323  11.0376 349.0695 15.73215750  8158,6727.85,91.532,351.278,348.152,0.0
52352.0,STARLINK-3838,PAYLOAD,2022-06-05 22:00:00,15.73287643,0.0002855,53.2141,252.9991,13.3198,270.6992,-0.0010634,-0.00147865,0.0,0 STARLINK-3838,1 52352U 22045X   22156.91667824 -.00147865  00000-0 -10634-2 0  9998,2 52352  53.2141 252.9991 0002855  13.3198 270.6992 15.73287643  8376,6727.645,91.528,351.431,347.59,0.0
52352.0,STARLINK-3838,PAYLOAD,2022-06-06 14:00:01,15.73216578,0.0003062,53.2138,249.7011,14.3668,87.521,6.6575e-05,8.739e-05,0.0,0 STARLINK-3838,1 52352U 22045X   22157.58334491  .00008739  00000-0  66575-4 0  9994,2 52352  53.2138 249.7011 0003062  14.3668  87.5210 15.73216578  8482,6727.848000000001,91.532,351.773,347.653,0.0
52352.0,STARLINK-3838,PAYLOAD,2022-06-06 22:00:00,15.73252204,0.0002983,53.2134,248.0503,11.7359,179.1223,-0.00061969,-0.00086917,0.0,0 STARLINK-3838,1 52352U 22045X   22157.91667824 -.00086917  00000-0 -61969-3 0  9997,2 52352  53.2134 248.0503 0002983  11.7359 179.1223 15.73252204  1307,6727.746,91.53,351.61800000000005,347.60400000000016,0.0
52352.0,STARLINK-3838,PAYLOAD,2022-06-07 14:00:01,15.73168001,0.000319,53.214,244.7521,15.7842,352.9872,0.0002784,0.00038584,0.0,0 STARLINK-3838,1 52352U 22045X   22158.58334491  .00038584  00000-0  27840-3 0  9997,2 52352  53.2140 244.7521 0003190  15.7842 352.9872 15.73168001  8645,6727.986,91.535,351.99800000000016,347.705,0.0
52352.0,STARLINK-3838,PAYLOAD,2022-06-07 22:00:00,15.73258537,0.0003156,53.2139,243.1012,13.6674,84.0263,-0.00057584,-0.00080893,0.0,0 STARLINK-3838,1 52352U 22045X   22158.91667824 -.00080893  00000-0 -57584-3 0  9993,2 52352  53.2139 243.1012 0003156  13.6674  84.0263 15.73258537  8699,6727.728,91.53,351.717,347.47,0.0
52352.0,STARLINK-3838,PAYLOAD,2022-06-08 14:00:01,15.7347843,0.0003247,53.2157,239.803,10.2626,265.2665,-0.0070044,-0.00896188,0.0,0 STARLINK-3838,1 52352U 22045X   22159.58334491 -.00896188  00000-0 -70044-2 0  9995,2 52352  53.2157 239.8030 0003247  10.2626 265.2665 15.73478430  1308,6727.101,91.517,351.151,346.782,0.0
52352.0,STARLINK-3838,PAYLOAD,2022-06-08 22:00:01,15.72947154,0.0003415,53.2167,238.1519,6.3315,358.0731,-0.0022429,-0.0030127,0.0,0 STARLINK-3838,1 52352U 22045X   22159.91668981 -.00301270  00000-0 -22429-2 0  9993,2 52352  53.2167 238.1519 0003415   6.3315 358.0731 15.72947154  8856,6728.616,91.548,352.779,348.18300000000005,0.0
52352.0,STARLINK-3838,PAYLOAD,2022-06-09 06:00:00,15.72725043,0.0003002,53.2174,236.5028,9.826,83.0338,-0.0056589,-0.00716194,0.0,0 STARLINK-3838,1 52352U 22045X   22160.25001157 -.00716194  00000-0 -56589-2 0  9997,2 52352  53.2174 236.5028 0003002   9.8260  83.0338 15.72725043  8905,6729.25,91.561,353.135,349.095,0.0
52352.0,STARLINK-3838,PAYLOAD,2022-06-09 14:00:01,15.72215433,0.0003669,53.2175,234.8579,6.9254,173.98,-0.0057886,-0.00716934,0.0,0 STARLINK-3838,1 52352U 22045X   22160.58334491 -.00716934  00000-0 -57886-2 0  9996,2 52352  53.2175 234.8579 0003669   6.9254 173.9800 15.72215433  1305,6730.704000000002,91.591,355.038,350.099,0.0
52352.0,STARLINK-3838,PAYLOAD,2022-06-09 22:00:00,15.71706494,0.0003243,53.2176,233.2106,0.6652,267.6751,-0.0059363,-0.00719105,0.0,0 STARLINK-3838,1 52352U 22045X   22160.91667824 -.00719105  00000-0 -59363-2 0  9997,2 52352  53.2176 233.2106 0003243   0.6652 267.6751 15.71706494  1303,6732.156999999997,91.62,356.205,351.838,0.0
52352.0,STARLINK-3838,PAYLOAD,2022-06-10 08:00:01,15.71069387,0.000373,53.2177,231.1551,2.3775,104.3933,-0.0060989,-0.0071923999999999,0.0,0 STARLINK-3838,1 52352U 22045X   22161.33334491 -.00719240  00000-0 -60989-2 0  9991,2 52352  53.2177 231.1551 0003730   2.3775 104.3933 15.71069387  9075,6733.977,91.657,358.353,353.33,0.0
52352.0,STARLINK-3838,PAYLOAD,2022-06-10 14:00:01,15.70693742,0.0004076,53.2176,229.9241,325.2419,116.1248,-0.0063065,-0.00731089,0.0,0 STARLINK-3838,1 52352U 22045X   22161.58334491 -.00731089  00000-0 -63065-2 0  9991,2 52352  53.2176 229.9241 0004076 325.2419 116.1248 15.70693742  1306,6735.05,91.679,359.66,354.17,0.0
52352.0,STARLINK-3838,PAYLOAD,2022-06-10 22:00:00,15.70178188,0.0005756,53.2175,228.2803,305.4428,221.523,-0.0063555,-0.00722366,0.0,0 STARLINK-3838,1 52352U 22045X   22161.91667824 -.00722366  00000-0 -63555-2 0  9999,2 52352  53.2175 228.2803 0005756 305.4428 221.5230 15.70178188  1301,6736.524,91.709,362.267,354.51199999999994,0.0
52352.0,STARLINK-3838,PAYLOAD,2022-06-11 14:00:01,15.69149892,0.0003869,53.2175,225.0018,284.6205,51.6998,-0.0064747,-0.00705671,0.0,0 STARLINK-3838,1 52352U 22045X   22162.58334491 -.00705671  00000-0 -64747-2 0  9998,2 52352  53.2175 225.0018 0003869 284.6205  51.6998 15.69149892  9262,6739.467,91.769,363.94,358.725,0.0
52352.0,STARLINK-3838,PAYLOAD,2022-06-11 22:00:00,15.68651424,0.000188,53.2176,223.3618,283.8599,136.2151,-0.0068172,-0.00725451,0.0,0 STARLINK-3838,1 52352U 22045X   22162.91667824 -.00725451  00000-0 -68172-2 0  9998,2 52352  53.2176 223.3618 0001880 283.8599 136.2151 15.68651424  1304,6740.895,91.799,364.027,361.492,0.0
52352.0,STARLINK-3838,PAYLOAD,2022-06-12 06:00:02,15.68139542,0.0001066,53.2178,221.7246,19.7042,123.5816,-0.0069331,-0.0072242,0.0,0 STARLINK-3838,1 52352U 22045X   22163.25002315 -.00722420  00000-0 -69331-2 0  9995,2 52352  53.2178 221.7246 0001066  19.7042 123.5816 15.68139542  9374,6742.361999999999,91.829,364.945,363.508,0.0
52352.0,STARLINK-3838,PAYLOAD,2022-06-12 14:00:01,15.68433381,0.0002451,53.2134,220.0822,292.2634,294.326,0.00062144,0.00071467,0.0,0 STARLINK-3838,1 52352U 22045X   22163.58334491  .00071467  00000-0  62144-3 0  9996,2 52352  53.2134 220.0822 0002451 292.2634 294.3260 15.68433381  9426,6741.519,91.811,365.037,361.732,0.0
52352.0,STARLINK-3838,PAYLOAD,2022-06-12 22:00:00,15.67117546,0.000114,53.2176,218.4542,63.9555,243.7168,-0.0071907,-0.00718819,0.0,0 STARLINK-3838,1 52352U 22045X   22163.91667824 -.00718819  00000-0 -71907-2 0  9999,2 52352  53.2176 218.4542 0001140  63.9555 243.7168 15.67117546  9472,6745.293000000002,91.888,367.927,366.389,0.0
52352.0,STARLINK-3838,PAYLOAD,2022-06-13 14:00:01,15.66092214,0.0001395,53.2174,215.1908,46.7723,62.9004,-0.0073888,-0.00709333,0.0,0 STARLINK-3838,1 52352U 22045X   22164.58334491 -.00709333  00000-0 -73888-2 0  9995,2 52352  53.2174 215.1908 0001395  46.7723  62.9004 15.66092214  1305,6748.236,91.949,371.043,369.16,0.0
52352.0,STARLINK-3838,PAYLOAD,2022-06-13 22:00:00,15.65585522,0.0001306,53.2175,213.5579,59.4186,130.3349,-0.0076036999999999,-0.0071468,0.0,0 STARLINK-3838,1 52352U 22045X   22164.91667824 -.00714680  00000-0 -76037-2 0  9991,2 52352  53.2175 213.5579 0001306  59.4186 130.3349 15.65585522  9632,6749.691999999999,91.978,372.439,370.676,0.0
52352.0,STARLINK-3838,PAYLOAD,2022-06-14 14:00:01,15.64565195,0.0001178,53.2175,210.302,57.3583,290.7169,-0.0079059,-0.00713351,0.0,0 STARLINK-3838,1 52352U 22045X   22165.58334491 -.00713351  00000-0 -79059-2 0  9997,2 52352  53.2175 210.3020 0001178  57.3583 290.7169 15.64565195  1303,6752.627,92.038,375.287,373.696,0.0
52352.0,STARLINK-3838,PAYLOAD,2022-06-14 22:00:00,15.64055187,0.0001225,53.2176,208.6729,50.5835,15.7356,-0.0080757,-0.00713956,0.0,0 STARLINK-3838,1 52352U 22045X   22165.91667824 -.00713956  00000-0 -80757-2 0  9991,2 52352  53.2176 208.6729 0001225  50.5835  15.7356 15.64055187  9797,6754.094,92.068,376.787,375.132,0.0
52352.0,STARLINK-3838,PAYLOAD,2022-06-15 14:00:01,15.6303316,0.000132,53.2173,205.4243,60.8689,160.0958,-0.0083509,-0.00709401,0.0,0 STARLINK-3838,1 52352U 22045X   22166.58334491 -.00709401  00000-0 -83509-2 0  9994,2 52352  53.2173 205.4243 0001320  60.8689 160.0958 15.63033160  1304,6757.038000000001,92.129,379.795,378.011,0.0
52352.0,STARLINK-3838,PAYLOAD,2022-06-15 22:00:00,15.62525401,0.0001291,53.2174,203.7989,51.6854,245.68400000000003,-0.0085775,-0.00713827,0.0,0 STARLINK-3838,1 52352U 22045X   22166.91667824 -.00713827  00000-0 -85775-2 0  9994,2 52352  53.2174 203.7989 0001291  51.6854 245.6840 15.62525401  9943,6758.502,92.159,381.24,379.495,0.0
52352.0,STARLINK-3838,PAYLOAD,2022-06-16 02:00:01,15.62271583,0.0001475,53.2174,202.9874,48.5869,106.754,-0.0086775,-0.0071493,0.0,0 STARLINK-3838,1 52352U 22045X   22167.08334491 -.00714930  00000-0 -86775-2 0  9991,2 52352  53.2174 202.9874 0001475  48.5869 106.7540 15.62271583  1307,6759.234,92.173,382.096,380.102,0.0
52352.0,STARLINK-3838,PAYLOAD,2022-06-19 14:00:01,15.56917405,0.000118,53.2172,186.0248,54.3913,322.9755,-0.010644,-0.00714087,0.0,0 STARLINK-3838,1 52352U 22045X   22170.58334491 -.00714087  00000-0 -10644-1 0  9994,2 52352  53.2172 186.0248 0001180  54.3913 322.9755 15.56917405  1303,6774.722,92.49,397.386,395.787,0.0
